SYRACUSE 3A             
1 28885U 05041B   26085.69993230  .00000116  00000+0  00000+0 0  9999
2 28885   4.4328  76.8481 0003631 285.3495 120.1402  1.00271792 74928
INMARSAT 4-F2           
1 28899U 05044A   26085.79052554 -.00000274  00000+0  00000+0 0  9999
2 28899   4.9880  43.7919 0002811 335.2431 233.2758  1.00271480 74692
METEOSAT-9 (MSG-2)      
1 28912U 05049B   26085.55719171  .00000113  00000+0  00000+0 0  9990
2 28912   9.1765  54.9616 0000517 194.3232 180.9331  1.00269569  6177
EUTELSAT 174A           
1 28924U 05052A   26085.86784409 -.00000006  00000+0  00000+0 0  9999
2 28924   4.0110  77.5250 0006299 288.1484 305.0258  1.00272047 51507
ECHOSTAR 10             
1 28935U 06003A   26085.88275082 -.00000072  00000+0  00000+0 0  9995
2 28935   0.0140  77.2611 0001756 249.2073  65.4372  1.00270976 73632
SPAINSAT                
1 28945U 06007A   26085.57276204 -.00000233  00000+0  00000+0 0  9992
2 28945   0.3496  88.0766 0004425 285.9097 346.0058  1.00269738 73396
JCSAT-5A                
1 29045U 06010A   26085.93087732 -.00000344  00000+0  00000+0 0  9997
2 29045   0.8961  85.1717 0001354 311.8891 254.4832  1.00271863 72947
ASTRA 1KR               
1 29055U 06012A   26085.84665706  .00000102  00000+0  00000+0 0  9994
2 29055   0.2616  81.9798 0003443 276.2815 149.7845  1.00272964 44877
GALAXY 16 (G-16)        
1 29236U 06023A   26085.67089885 -.00000143  00000+0  00000+0 0  9992
2 29236   0.0182 201.7842 0002651 163.7434 321.0980  1.00271835 72145
EUTELSAT 33F            
1 29270U 06032A   26085.83993729  .00000139  00000+0  00000+0 0  9993
2 29270   1.4491  83.1445 0003447 280.5831 156.0041  1.00272890 46489
JCSAT-3A                
1 29272U 06033A   26085.93009730  .00000000  00000+0  00000+0 0  9994
2 29272   0.0191 151.1668 0002254 224.3342 271.7029  1.00269913 46915
SYRACUSE 3B             
1 29273U 06033B   26085.59350226 -.00000002  00000+0  00000+0 0  9999
2 29273   2.6909  81.1692 0004896 268.0671 311.0724  0.98624937 71841
KOREASAT 5 (MUGUNGWHA 5)
1 29349U 06034A   26085.62267164 -.00000373  00000+0  00000+0 0  9997
2 29349   1.5718  83.9990 0001933 314.1516 123.1102  1.00269196 40497
DIRECTV 9S              
1 29494U 06043A   26085.88457082 -.00000129  00000+0  00000+0 0  9995
2 29494   2.2087  81.8775 0003416 292.8405  26.8501  1.00271434 50558
OPTUS D1                
1 29495U 06043B   26085.83239236 -.00000199  00000+0  00000+0 0  9997
2 29495   2.8230  80.6519 0003814 284.3378 270.9218  1.00271471 71297
BADR-4                  
1 29526U 06051A   26085.90987758  .00000129  00000+0  00000+0 0  9990
2 29526   1.7928  81.9890 0007058 273.8661 182.2979  1.00270044 50440
WILDBLUE-1              
1 29643U 06054A   26085.88266416 -.00000065  00000+0  00000+0 0  9991
2 29643   2.5911  81.5031 0001607 283.4872  25.8873  1.00271849 52967
SKYNET 5A               
1 30794U 07007B   26085.85224402 -.00000285  00000+0  00000+0 0  9999
2 30794   5.0918  74.7282 0004072 304.8347 206.7144  1.00269479 69872
ANIK F3                 
1 31102U 07009A   26085.66725883 -.00000017  00000+0  00000+0 0  9996
2 31102   0.9842  84.8124 0002713 274.9966 305.7867  1.00271348 45736
ASTRA 1L                
1 31306U 07016A   26085.89982421 -.00000201  00000+0  00000+0 0  9993
2 31306   1.1093  82.1506 0003897 297.3763 104.2247  1.00271633 44163
GALAXY 17 (G-17)        
1 31307U 07016B   26085.88786417 -.00000222  00000+0  00000+0 0  9993
2 31307   2.7642  80.9171 0003611 292.9587  45.0778  1.00270992 68977
DIRECTV 10              
1 31862U 07032A   26085.88353082 -.00000004  00000+0  00000+0 0  9993
2 31862   0.1905  95.2647 0006830 284.3942  15.8901  0.98335881 44758
INTELSAT 11 (IS-11)     
1 32253U 07044B   26085.92992397 -.00000263  00000+0  00000+0 0  9991
2 32253   3.3516  79.6512 0003792 213.3535 353.7131  0.99051062 67635
WGS F1 (USA 195)        
1 32258U 07046A   26085.89627087 -.00000284  00000+0  00000+0 0  9998
2 32258   0.0758  84.8489 0000752 232.2621 147.3785  1.00272216 51513
SKYNET 5B               
1 32294U 07056B   26085.74345426  .00000126  00000+0  00000+0 0  9991
2 32294   5.0426  74.4730 0003937 293.8127 108.6438  1.00275515 67377
ASTRA 4A                
1 32299U 07057A   26085.90563090  .00000015  00000+0  00000+0 0  9991
2 32299   0.0370  37.9484 0002497 329.6475 147.5575  1.00271958 50822
HORIZONS-2              
1 32388U 07063B   26085.89011751 -.00000269  00000+0  00000+0 0  9999
2 32388   2.3902  81.6285 0002596 283.3993  65.9343  1.00272765 66980
THURAYA-3               
1 32404U 08001A   26086.00002478 -.00000316  00000+0  00000+0 0  9994
2 32404   5.8525  35.6499 0002339 315.0932 292.1511  1.00274591 66660
THOR 5                  
1 32487U 08006A   26085.76190162 -.00000026  00000+0  00000+0 0  9998
2 32487   0.0109 209.5009 0002367 151.7140  96.5075  1.00272432 66485
AMC-14                  
1 32708U 08011A   26084.91524633  .00000082  00000+0  00000+0 0  9991
2 32708  23.9087  21.5229 0048349 357.8332 177.7532  1.00330824 67333
DIRECTV 11              
1 32729U 08013A   26085.67089885 -.00000142  00000+0  00000+0 0  9993
2 32729   0.0114  65.1953 0000375 244.1608  17.0740  1.00271038 44762
ICO G1                  
1 32763U 08016A   26085.88630417 -.00000186  00000+0  00000+0 0  9998
2 32763   5.5117  36.3051 0002649 308.7609  65.4665  1.00272787 65720
VINASAT-1               
1 32767U 08018A   26085.93087732 -.00000345  00000+0  00000+0 0  9993
2 32767   0.0171 266.8233 0002193 128.3965 256.1934  1.00272340 65768
STAR ONE C2             
1 32768U 08018B   26085.89185086 -.00000293  00000+0  00000+0 0  9992
2 32768   1.0308  83.1519 0002741 281.8319  75.3978  1.00273640 65826
AMOS-3                  
1 32794U 08022A   26085.90389756 -.00000052  00000+0  00000+0 0  9991
2 32794   0.2432  87.4650 0001287 190.2447 227.8865  1.00271950 81511
GALAXY 18 (G-18)        
1 32951U 08024A   26085.66639216  .00000009  00000+0  00000+0 0  9991
2 32951   0.0157 144.5294 0002854 219.3764 297.0882  1.00271512 45021
ZHONGXING-9             
1 33051U 08028A   26085.97758189 -.00000265  00000+0  00000+0 0  9997
2 33051   0.5578  86.4116 0007976 256.3520 285.9420  1.00269215 65217
SKYNET 5C               
1 33055U 08030A   26085.90121089 -.00000155  00000+0  00000+0 0  9998
2 33055   3.5790  77.9954 0005178 298.3362 114.6330  1.00271708 65136
TURKSAT 3A              
1 33056U 08030B   26085.91299760  .00000129  00000+0  00000+0 0  9992
2 33056   0.0533  77.7714 0004803 309.6065 167.6140  1.00271363 51539
INTELSAT 25 (IS-25)     
1 33153U 08034A   26085.89843755 -.00000240  00000+0  00000+0 0  9995
2 33153   2.4956  81.2966 0003020 260.5199 134.4406  1.00269845 64874
ECHOSTAR 11             
1 33207U 08035A   26085.88292416 -.00000074  00000+0  00000+0 0  9992
2 33207   0.7923  85.0696 0002526 264.9439  42.1798  1.00277440 50386
SUPERBIRD-C2            
1 33274U 08038A   26085.93165731 -.00000322  00000+0  00000+0 0  9990
2 33274   2.1492  82.2767 0002293 355.3885 218.1173  1.00272333104902
INMARSAT 4-F3           
1 33278U 08039A   26085.88526417 -.00000154  00000+0  00000+0 0  9994
2 33278   4.2232  31.3029 0002759 343.9082  29.7993  1.00270487 45724
NIMIQ 4                 
1 33373U 08044A   26085.88847084 -.00000237  00000+0  00000+0 0  9994
2 33373   0.0119 122.9212 0002357 248.0590  51.1978  1.00271823 64157
GALAXY 19 (G-19)        
1 33376U 08045A   26085.88552417 -.00000156  00000+0  00000+0 0  9991
2 33376   0.0238 245.8874 0002774 110.9480  49.2722  1.00271905 64076
ASTRA 1M                
1 33436U 08057A   26085.84794801  .00000104  00000+0  00000+0 0  9994
2 33436   0.0874  73.0090 0002095   3.3609  72.5045  1.00277701 44912
EUTELSAT HOTBIRD 13C    
1 33459U 08065A   26085.89471087 -.00000298  00000+0  00000+0 0  9996
2 33459   2.7393  80.1444 0003890 290.7657  85.2267  1.00270898 46529
EXPRESS-AM44            
1 33595U 09007A   26085.90251089 -.00000105  00000+0  00000+0 0  9991
2 33595   3.2516  79.3808 0004120 280.5252 138.3295  1.00271360 51467
NSS-9                   
1 33749U 09008A   26085.86966410  .00000055  00000+0  00000+0 0  9992
2 33749   1.0490  83.3864 0002161 266.9937 330.0611  1.00272507 62697
TELSTAR 11N             
1 34111U 09009A   26085.89722420  .00000000  00000+0  00000+0 0  9991
2 34111   0.0227 165.7309 0002607 184.8883 119.1705  1.00266864 45421
WGS F2 (USA 204)        
1 34713U 09017A   26085.87961584  .00000000  00000+0  00000+0 0  9992
2 34713   0.0184 166.9532 0000310 106.9228 284.6209  1.00271426 44795
SES-7 (PROTOSTAR 2)     
1 34941U 09027A   26085.78350551 -.00000361  00000+0  00000+0 0  9993
2 34941   0.0686  77.3491 0001628 245.4531 251.7067  1.00268722 61806
MEASAT-3A               
1 35362U 09032A   26085.86507074 -.00000128  00000+0  00000+0 0  9991
2 35362   0.0428   5.3434 0003097 356.4353 293.9344  1.00271286  7202
GOES 14                 
1 35491U 09033A   26085.79936558  .00000061  00000+0  00000+0 0  9995
2 35491   1.4774  84.0492 0001701 272.7923 303.4696  1.00107687  5764
FM-5                    
1 35493U 09034A   26085.88760417 -.00000217  00000+0  00000+0 0  9991
2 35493   0.0263 259.3937 0000686 350.2462 168.0599  1.00272369 45813
TERRESTAR-1             
1 35496U 09035A   26085.88275082 -.00000071  00000+0  00000+0 0  9992
2 35496   5.1124  48.8128 0003063 321.1990  21.0961  1.00274063 61302
ASIASAT 5               
1 35696U 09042A   26085.92463728 -.00000325  00000+0  00000+0 0  9995
2 35696   0.0264 243.8292 0001801 111.3137 262.5644  1.00274930 60887
JCSAT-12 (JCSAT-RA)     
1 35755U 09044A   26085.93087732 -.00000345  00000+0  00000+0 0  9993
2 35755   0.0227 263.2162 0001436  49.0734 339.2360  1.00270950 60782
